{"type": "FeatureCollection", "features": [ {"type": "Feature", "properties": {"norad_id": 37550, "name": "IRIDIUM 33 DEB", "group": "iridium-33-debris", "lat": -54.089311371376326, "lon": 22.182283776772625, "alt_km": 681.3334778539574, "timestamp": "2025-12-05T05:43:15.495399+00:00", "meta": {"OBJECT_NAME": "IRIDIUM 33 DEB", "OBJECT_ID": "1997-051XK", "EPOCH": "2025-12-01T10:17:32.492256", "MEAN_MOTION": 14.66958093, "ECCENTRICITY": 0.00051706, "INCLINATION": 86.3787, "RA_OF_ASC_NODE": 28.8861, "ARG_OF_PERICENTER": 137.4218, "MEAN_ANOMALY": 222.7397, "EPHEMERIS_TYPE": 0, "CLASSIFICATION_TYPE": "U", "NORAD_CAT_ID": 37550, "ELEMENT_SET_NO": 999, "REV_AT_EPOCH": 86167, "BSTAR": 0.0016356222, "MEAN_MOTION_DOT": 9.181e-05, "MEAN_MOTION_DDOT": 0}, "tle": {"line1": "1 37550U 97051XK  25335.42884829  .00009181  00000+0  16356-2 0  9996", "line2": "2 37550  86.3787  28.8861 0005170 137.4218 222.7397 14.66958093861674"}}, "geometry": {"type": "Point", "coordinates": [22.182283776772625, -54.089311371376326]}}, {"type": "Feature", "properties": {"norad_id": 37562, "name": "IRIDIUM 33 DEB", "group": "iridium-33-debris", "lat": 82.23367148454814, "lon": 74.56704893498743, "alt_km": 684.9172919418943, "timestamp": "2025-12-05T05:43:15.495408+00:00", "meta": {"OBJECT_NAME": "IRIDIUM 33 DEB", "OBJECT_ID": "1997-051XX", "EPOCH": "2025-12-04T11:17:17.134944", "MEAN_MOTION": 14.56353338, "ECCENTRICITY": 0.0026575, "INCLINATION": 86.3754, "RA_OF_ASC_NODE": 47.2063, "ARG_OF_PERICENTER": 133.7683, "MEAN_ANOMALY": 245.4514, "EPHEMERIS_TYPE": 0, "CLASSIFICATION_TYPE": "U", "NORAD_CAT_ID": 37562, "ELEMENT_SET_NO": 999, "REV_AT_EPOCH": 86208, "BSTAR": 0.0028306, "MEAN_MOTION_DOT": 0.00012638, "MEAN_MOTION_DDOT": 0}, "tle": {"line1": "1 37562U 97051XX  25338.47033721  .00012638  00000+0  28306-2 0  9993", "line2": "2 37562  86.3754  47.2063 0026575 133.7683 245.4514 14.56353338862086"}}, "geometry": {"type": "Point", "coordinates": [74.56704893498743, 82.23367148454814]}}, {"type": "Feature", "properties": {"norad_id": 37565, "name": "IRIDIUM 33 DEB", "group": "iridium-33-debris", "lat": -3.34324963453213, "lon": 12.632922062731396, "alt_km": 727.747963455321, "timestamp": "2025-12-05T05:43:15.495418+00:00", "meta": {"OBJECT_NAME": "IRIDIUM 33 DEB", "OBJECT_ID": "1997-051YA", "EPOCH": "2025-12-03T20:38:42.302976", "MEAN_MOTION": 14.51459123, "ECCENTRICITY": 0.0015186, "INCLINATION": 86.3502, "RA_OF_ASC_NODE": 13.4465, "ARG_OF_PERICENTER": 109.8434, "MEAN_ANOMALY": 250.441, "EPHEMERIS_TYPE": 0, "CLASSIFICATION_TYPE": "U", "NORAD_CAT_ID": 37565, "ELEMENT_SET_NO": 999, "REV_AT_EPOCH": 65708, "BSTAR": 0.0010607, "MEAN_MOTION_DOT": 4.261e-05, "MEAN_MOTION_DDOT": 0}, "tle": {"line1": "1 37565U 97051YA  25337.86021184  .00004261  00000+0  10607-2 0  9996", "line2": "2 37565  86.3502  13.4465 0015186 109.8434 250.4410 14.51459123657082"}}, "geometry": {"type": "Point", "coordinates": [12.632922062731396, -3.34324963453213]}}, {"type": "Feature", "properties": {"norad_id": 38017, "name": "IRIDIUM 33 DEB", "group": "iridium-33-debris", "lat": 21.00328917029632, "lon": -11.924121523575185, "alt_km": 673.8414045695645, "timestamp": "2025-12-05T05:43:15.495428+00:00", "meta": {"OBJECT_NAME": "IRIDIUM 33 DEB", "OBJECT_ID": "1997-051YD", "EPOCH": "2025-12-01T06:29:11.103360", "MEAN_MOTION": 14.48304289, "ECCENTRICITY": 0.009214, "INCLINATION": 86.3439, "RA_OF_ASC_NODE": 171.2047, "ARG_OF_PERICENTER": 141.8586, "MEAN_ANOMALY": 218.9187, "EPHEMERIS_TYPE": 0, "CLASSIFICATION_TYPE": "U", "NORAD_CAT_ID": 38017, "ELEMENT_SET_NO": 999, "REV_AT_EPOCH": 61236, "BSTAR": 0.0066574, "MEAN_MOTION_DOT": 0.00026341, "MEAN_MOTION_DDOT": 0}, "tle": {"line1": "1 38017U 97051YD  25335.27026740  .00026341  00000+0  66574-2 0  9992", "line2": "2 38017  86.3439 171.2047 0092140 141.8586 218.9187 14.48304289612362"}}, "geometry": {"type": "Point", "coordinates": [-11.924121523575185, 21.00328917029632]}}, {"type": "Feature", "properties": {"norad_id": 38022, "name": "IRIDIUM 33 DEB", "group": "iridium-33-debris", "lat": 35.137871483365934, "lon": -162.90244764438313, "alt_km": 741.1188504525344, "timestamp": "2025-12-05T05:43:15.495438+00:00", "meta": {"OBJECT_NAME": "IRIDIUM 33 DEB", "OBJECT_ID": "1997-051YJ", "EPOCH": "2025-12-03T09:43:50.752992", "MEAN_MOTION": 14.41155819, "ECCENTRICITY": 0.00470517, "INCLINATION": 86.2701, "RA_OF_ASC_NODE": 20.531, "ARG_OF_PERICENTER": 80.0356, "MEAN_ANOMALY": 280.615, "EPHEMERIS_TYPE": 0, "CLASSIFICATION_TYPE": "U", "NORAD_CAT_ID": 38022, "ELEMENT_SET_NO": 999, "REV_AT_EPOCH": 69059, "BSTAR": 0.0013840286, "MEAN_MOTION_DOT": 4.54e-05, "MEAN_MOTION_DDOT": 0}, "tle": {"line1": "1 38022U 97051YJ  25337.40544853  .00004540  00000+0  13840-2 0  9990", "line2": "2 38022  86.2701  20.5310 0047051  80.0356 280.6150 14.41155819690591"}}, "geometry": {"type": "Point", "coordinates": [-162.90244764438313, 35.137871483365934]}}, {"type": "Feature", "properties": {"norad_id": 38028, "name": "IRIDIUM 33 DEB", "group": "iridium-33-debris", "lat": 25.53129368901593, "lon": -178.22915895125251, "alt_km": 716.8501458738283, "timestamp": "2025-12-05T05:43:15.495448+00:00", "meta": {"OBJECT_NAME": "IRIDIUM 33 DEB", "OBJECT_ID": "1997-051YQ", "EPOCH": "2025-12-02T08:55:29.085888", "MEAN_MOTION": 14.46151271, "ECCENTRICITY": 0.00294346, "INCLINATION": 86.325, "RA_OF_ASC_NODE": 4.7758, "ARG_OF_PERICENTER": 153.8613, "MEAN_ANOMALY": 206.4083, "EPHEMERIS_TYPE": 0, "CLASSIFICATION_TYPE": "U", "NORAD_CAT_ID": 38028, "ELEMENT_SET_NO": 999, "REV_AT_EPOCH": 65345, "BSTAR": 0.00044678043, "MEAN_MOTION_DOT": 1.624e-05, "MEAN_MOTION_DDOT": 0}, "tle": {"line1": "1 38028U 97051YQ  25336.37186442  .00001624  00000+0  44678-3 0  9991", "line2": "2 38028  86.3250   4.7758 0029434 153.8613 206.4083 14.46151271653455"}}, "geometry": {"type": "Point", "coordinates": [-178.22915895125251, 25.53129368901593]}}, {"type": "Feature", "properties": {"norad_id": 38228, "name": "IRIDIUM 33 DEB", "group": "iridium-33-debris", "lat": -58.38865786243371, "lon": -122.29884875865186, "alt_km": 766.7009044606884, "timestamp": "2025-12-05T05:43:15.495458+00:00", "meta": {"OBJECT_NAME": "IRIDIUM 33 DEB", "OBJECT_ID": "1997-051ZC", "EPOCH": "2025-12-04T12:04:12.154080", "MEAN_MOTION": 14.27248103, "ECCENTRICITY": 0.0063431, "INCLINATION": 86.2954, "RA_OF_ASC_NODE": 51.9711, "ARG_OF_PERICENTER": 216.1795, "MEAN_ANOMALY": 205.5635, "EPHEMERIS_TYPE": 0, "CLASSIFICATION_TYPE": "U", "NORAD_CAT_ID": 38228, "ELEMENT_SET_NO": 999, "REV_AT_EPOCH": 84664, "BSTAR": 0.0006926, "MEAN_MOTION_DOT": 1.747e-05, "MEAN_MOTION_DDOT": 0}, "tle": {"line1": "1 38228U 97051ZC  25338.50291845  .00001747  00000+0  69260-3 0  9994", "line2": "2 38228  86.2954  51.9711 0063431 216.1795 205.5635 14.27248103846647"}}, "geometry": {"type": "Point", "coordinates": [-122.29884875865186, -58.38865786243371]}}, {"type": "Feature", "properties": {"norad_id": 38241, "name": "IRIDIUM 33 DEB", "group": "iridium-33-debris", "lat": 43.40576799183383, "lon": 170.4213678626287, "alt_km": 703.8548995066876, "timestamp": "2025-12-05T05:43:15.495468+00:00", "meta": {"OBJECT_NAME": "IRIDIUM 33 DEB", "OBJECT_ID": "1997-051ZR", "EPOCH": "2025-12-04T07:38:11.008608", "MEAN_MOTION": 14.54784476, "ECCENTRICITY": 0.0005686, "INCLINATION": 86.3226, "RA_OF_ASC_NODE": 354.3146, "ARG_OF_PERICENTER": 90.3994, "MEAN_ANOMALY": 269.7864, "EPHEMERIS_TYPE": 0, "CLASSIFICATION_TYPE": "U", "NORAD_CAT_ID": 38241, "ELEMENT_SET_NO": 999, "REV_AT_EPOCH": 60078, "BSTAR": 0.0016772, "MEAN_MOTION_DOT": 7.21e-05, "MEAN_MOTION_DDOT": 0}, "tle": {"line1": "1 38241U 97051ZR  25338.31818297  .00007210  00000+0  16772-2 0  9994", "line2": "2 38241  86.3226 354.3146 0005686  90.3994 269.7864 14.54784476600785"}}, "geometry": {"type": "Point", "coordinates": [170.4213678626287, 43.40576799183383]}}, {"type": "Feature", "properties": {"norad_id": 38474, "name": "IRIDIUM 33 DEB", "group": "iridium-33-debris", "lat": 21.25241938545635, "lon": 14.754428490620986, "alt_km": 723.4740326516239, "timestamp": "2025-12-05T05:43:15.495478+00:00", "meta": {"OBJECT_NAME": "IRIDIUM 33 DEB", "OBJECT_ID": "1997-051AAB", "EPOCH": "2025-11-29T08:54:08.657856", "MEAN_MOTION": 14.50603208, "ECCENTRICITY": 0.002717, "INCLINATION": 86.3442, "RA_OF_ASC_NODE": 15.8845, "ARG_OF_PERICENTER": 130.9322, "MEAN_ANOMALY": 229.4241, "EPHEMERIS_TYPE": 0, "CLASSIFICATION_TYPE": "U", "NORAD_CAT_ID": 38474, "ELEMENT_SET_NO": 999, "REV_AT_EPOCH": 65124, "BSTAR": 0.00047302373, "MEAN_MOTION_DOT": 1.884e-05, "MEAN_MOTION_DDOT": 0}, "tle": {"line1": "1 38474U 97051AAB 25333.37093354  .00001884  00000+0  47302-3 0  9997", "line2": "2 38474  86.3442  15.8845 0027170 130.9322 229.4241 14.50603208651244"}}, "geometry": {"type": "Point", "coordinates": [14.754428490620986, 21.25241938545635]}}, {"type": "Feature", "properties": {"norad_id": 39777, "name": "IRIDIUM 33 DEB", "group": "iridium-33-debris", "lat": -82.05022434731036, "lon": 148.2948180630937, "alt_km": 694.6709610817315, "timestamp": "2025-12-05T05:43:15.495488+00:00", "meta": {"OBJECT_NAME": "IRIDIUM 33 DEB", "OBJECT_ID": "1997-051AAJ", "EPOCH": "2025-12-01T13:02:19.201056", "MEAN_MOTION": 14.56024465, "ECCENTRICITY": 0.00595889, "INCLINATION": 85.9622, "RA_OF_ASC_NODE": 180.4732, "ARG_OF_PERICENTER": 225.0821, "MEAN_ANOMALY": 134.5543, "EPHEMERIS_TYPE": 0, "CLASSIFICATION_TYPE": "U", "NORAD_CAT_ID": 39777, "ELEMENT_SET_NO": 999, "REV_AT_EPOCH": 60022, "BSTAR": 0.0022774227, "MEAN_MOTION_DOT": 0.00010294, "MEAN_MOTION_DDOT": 0}, "tle": {"line1": "1 39777U 97051AAJ 25335.54327779  .00010294  00000+0  22774-2 0  9996", "line2": "2 39777  85.9622 180.4732 0059588 225.0821 134.5543 14.56024465600229"}}, "geometry": {"type": "Point", "coordinates": [148.2948180630937, -82.05022434731036]}}]}